[{"OBJECT_NAME":"SKYKRAFT-1A","OBJECT_ID":"2023-001AX","EPOCH":"2026-03-09T17:03:19.828224","MEAN_MOTION":15.28083228,"ECCENTRICITY":0.00112767,"INCLINATION":97.3349,"RA_OF_ASC_NODE":127.629,"ARG_OF_PERICENTER":121.5092,"MEAN_ANOMALY":238.7251,"EPHEMERIS_TYPE":0,"CLASSIFICATION_TYPE":"U","NORAD_CAT_ID":55054,"ELEMENT_SET_NO":999,"REV_AT_EPOCH":17652,"BSTAR":0.0003006872,"MEAN_MOTION_DOT":8.177e-5,"MEAN_MOTION_DDOT":0},{"OBJECT_NAME":"STARLINK-32498","OBJECT_ID":"2024-210H","EPOCH":"2026-03-09T14:02:34.810368","MEAN_MOTION":15.27605242,"ECCENTRICITY":0.0001894,"INCLINATION":43.0044,"RA_OF_ASC_NODE":165.7411,"ARG_OF_PERICENTER":285.7197,"MEAN_ANOMALY":74.3445,"EPHEMERIS_TYPE":0,"CLASSIFICATION_TYPE":"U","NORAD_CAT_ID":61966,"ELEMENT_SET_NO":999,"REV_AT_EPOCH":7506,"BSTAR":0.00082165,"MEAN_MOTION_DOT":0.00022434,"MEAN_MOTION_DDOT":0}]
